ONEWEB-0650             
1 55813U 23029T   23257.76142881  .00000055  00000+0  10484-3 0  9993
2 55813  87.9261 145.2615 0002282  75.1300 285.0086 13.19724774 26845
ONEWEB-0652             
1 55814U 23029U   23257.83334491 -.00035789  00000+0 -88060-1 0  9999
2 55814  87.9208 130.0317 0001588  82.9742 289.2376 13.21032950 27842
ONEWEB-0653             
1 55815U 23029V   23257.15515738  .00000083  00000+0  15480-3 0  9995
2 55815  87.9425 130.0918 0004324  86.3149 273.8482 13.27250284 27093
ONEWEB-0654             
1 55816U 23029W   23257.58335648  .00038842  00000+0  94568-1 0  9999
2 55816  87.9207 130.0731 0000730 197.8752 176.6956 13.21144273  5355
ONEWEB-0656             
1 55817U 23029X   23257.83334491 -.01082908  00000+0 -60430+0 0  9997
2 55817  87.1013 117.6867 0003452  80.7940  86.4185 14.14493536 28749
ONEWEB-0657             
1 55818U 23029Y   23257.22597272  .00000075  00000+0  15408-3 0  9990
2 55818  87.9268 145.3710 0001889  43.9811 316.1472 13.19729275 26099
ONEWEB-0658             
1 55819U 23029Z   23257.75193840 -.00000007  00000+0 -49660-4 0  9997
2 55819  87.9250 145.2169 0002553  77.1265 283.0153 13.19730130 26853
ONEWEB-0660             
1 55820U 23029AA  23257.83334491  .00000013  00000+0  00000+0 0  9992
2 55820  87.9364 129.9897 0003187  94.4769  83.0180 13.24811138 27890
